start=new Date('2021-11-27T00:00:00.000Z').valueOf();
sats=[{"MEAN_ANOMALY":"290.5356","GP_ID":"190558695","CLASSIFICATION_TYPE":"U","EPOCH":"2021-11-26T14:26:47.976288","BSTAR":"0.00001824200000","COUNTRY_CODE":"US","MEAN_MOTION_DDOT":"0.0000000000000","MEAN_MOTION":"15.06396420","REV_AT_EPOCH":"4199","OBJECT_ID":"2021-017AJ","DECAY_DATE":null,"OBJECT_NAME":"STARLINK-2171","TLE_LINE2":"2 47754  53.0572  33.0800 0001202  69.5762 290.5356 15.06396420 41994","RCS_SIZE":"LARGE","MEAN_ELEMENT_THEORY":"SGP4","RA_OF_ASC_NODE":"33.0800","LAUNCH_DATE":"2021-03-04","FILE":"3224952","SITE":"AFETR","TLE_LINE1":"1 47754U 21017AJ  21330.60194417 -.00000010  00000-0  18242-4 0  9992","REF_FRAME":"TEME","ARG_OF_PERICENTER":"69.5762","TIME_SYSTEM":"UTC","APOAPSIS":"548.057","ELEMENT_SET_NO":"999","NORAD_CAT_ID":"47754","INCLINATION":"53.0572","PERIOD":"95.592","PERIAPSIS":"546.392","EPHEMERIS_TYPE":"0","ECCENTRICITY":"0.00012020","SEMIMAJOR_AXIS":"6925.360","MEAN_MOTION_DOT":"-0.00000010","OBJECT_TYPE":"PAYLOAD","CENTER_NAME":"EARTH"},{"OBJECT_NAME":"STARLINK-2172","TLE_LINE2":"2 47755  53.0547  26.9613 0001469  91.0166 269.0991 15.06450179 42093","MEAN_MOTION":"15.06450179","OBJECT_ID":"2021-017AK","REV_AT_EPOCH":"4209","DECAY_DATE":null,"SITE":"AFETR","TLE_LINE1":"1 47755U 21017AK  21330.85389806  .00006647  00000-0  46406-3 0  9991","RCS_SIZE":"LARGE","MEAN_ELEMENT_THEORY":"SGP4","RA_OF_ASC_NODE":"26.9613","LAUNCH_DATE":"2021-03-04","FILE":"3224952","GP_ID":"190558945","MEAN_ANOMALY":"269.0991","BSTAR":"0.00046406000000","COUNTRY_CODE":"US","MEAN_MOTION_DDOT":"0.0000000000000","CLASSIFICATION_TYPE":"U","EPOCH":"2021-11-26T20:29:36.792384","SEMIMAJOR_AXIS":"6925.195","EPHEMERIS_TYPE":"0","ECCENTRICITY":"0.00014690","CENTER_NAME":"EARTH","MEAN_MOTION_DOT":"0.00006647","OBJECT_TYPE":"PAYLOAD","REF_FRAME":"TEME","ARG_OF_PERICENTER":"91.0166","APOAPSIS":"548.077","TIME_SYSTEM":"UTC","ELEMENT_SET_NO":"999","PERIOD":"95.589","PERIAPSIS":"546.042","NORAD_CAT_ID":"47755","INCLINATION":"53.0547"},{"TLE_LINE2":"2 47756  53.0569  31.9107 0001515  66.7761 293.3388 15.06400565 42076","OBJECT_NAME":"STARLINK-2174","MEAN_MOTION":"15.06400565","DECAY_DATE":null,"OBJECT_ID":"2021-017AL","REV_AT_EPOCH":"4207","SITE":"AFETR","TLE_LINE1":"1 47756U 21017AL  21330.86364572 -.00000449  00000-0 -11232-4 0  9992","MEAN_ELEMENT_THEORY":"SGP4","RCS_SIZE":"LARGE","FILE":"3224952","LAUNCH_DATE":"2021-03-04","RA_OF_ASC_NODE":"31.9107","GP_ID":"190560191","MEAN_ANOMALY":"293.3388","COUNTRY_CODE":"US","BSTAR":"-0.00001123200000","MEAN_MOTION_DDOT":"0.0000000000000","EPOCH":"2021-11-26T20:43:38.990208","CLASSIFICATION_TYPE":"U","SEMIMAJOR_AXIS":"6925.347","ECCENTRICITY":"0.00015150","EPHEMERIS_TYPE":"0","CENTER_NAME":"EARTH","OBJECT_TYPE":"PAYLOAD","MEAN_MOTION_DOT":"-0.00000449","ARG_OF_PERICENTER":"66.7761","REF_FRAME":"TEME","ELEMENT_SET_NO":"999","APOAPSIS":"548.261","TIME_SYSTEM":"UTC","PERIAPSIS":"546.163","PERIOD":"95.592","INCLINATION":"53.0569","NORAD_CAT_ID":"47756"},{"NORAD_CAT_ID":"47757","INCLINATION":"53.0575","PERIAPSIS":"546.276","PERIOD":"95.592","REF_FRAME":"TEME","ARG_OF_PERICENTER":"81.1857","TIME_SYSTEM":"UTC","APOAPSIS":"548.125","ELEMENT_SET_NO":"999","MEAN_MOTION_DOT":"0.00001049","OBJECT_TYPE":"PAYLOAD","CENTER_NAME":"EARTH","EPHEMERIS_TYPE":"0","ECCENTRICITY":"0.00013350","SEMIMAJOR_AXIS":"6925.335","CLASSIFICATION_TYPE":"U","EPOCH":"2021-11-26T21:57:57.619872","BSTAR":"0.00008929800000","COUNTRY_CODE":"US","MEAN_MOTION_DDOT":"0.0000000000000","MEAN_ANOMALY":"278.9283","GP_ID":"190560447","RCS_SIZE":"MEDIUM","MEAN_ELEMENT_THEORY":"SGP4","RA_OF_ASC_NODE":"31.6764","FILE":"3224952","LAUNCH_DATE":"2021-03-04","TLE_LINE1":"1 47757U 21017AM  21330.91525023  .00001049  00000-0  89298-4 0  9991","SITE":"AFETR","MEAN_MOTION":"15.06404339","OBJECT_ID":"2021-017AM","REV_AT_EPOCH":"4202","DECAY_DATE":null,"OBJECT_NAME":"STARLINK-2175","TLE_LINE2":"2 47757  53.0575  31.6764 0001335  81.1857 278.9283 15.06404339 42028"},{"OBJECT_ID":"2021-017AN","REV_AT_EPOCH":"4201","DECAY_DATE":null,"MEAN_MOTION":"15.06401698","OBJECT_NAME":"STARLINK-2176","TLE_LINE2":"2 47758  53.0565  33.7520 0007495  52.1579 308.0087 15.06401698 42014","RA_OF_ASC_NODE":"33.7520","FILE":"3224704","LAUNCH_DATE":"2021-03-04","RCS_SIZE":"LARGE","MEAN_ELEMENT_THEORY":"SGP4","TLE_LINE1":"1 47758U 21017AN  21330.45451558  .00001196  00000-0  99294-4 0  9992","SITE":"AFETR","MEAN_ANOMALY":"308.0087","GP_ID":"190530391","CLASSIFICATION_TYPE":"U","EPOCH":"2021-11-26T10:54:30.146112","MEAN_MOTION_DDOT":"0.0000000000000","BSTAR":"0.00009929400000","COUNTRY_CODE":"US","EPHEMERIS_TYPE":"0","ECCENTRICITY":"0.00074950","SEMIMAJOR_AXIS":"6925.343","MEAN_MOTION_DOT":"0.00001196","OBJECT_TYPE":"PAYLOAD","CENTER_NAME":"EARTH","APOAPSIS":"552.399","TIME_SYSTEM":"UTC","ELEMENT_SET_NO":"999","REF_FRAME":"TEME","ARG_OF_PERICENTER":"52.1579","NORAD_CAT_ID":"47758","INCLINATION":"53.0565","PERIOD":"95.592","PERIAPSIS":"542.018"},{"TLE_LINE2":"2 47759  53.0549   5.3936 0003302  47.4443 312.6847 15.56761163 42390","OBJECT_NAME":"STARLINK-2177","MEAN_MOTION":"15.56761163","DECAY_DATE":null,"OBJECT_ID":"2021-017AP","REV_AT_EPOCH":"4239","TLE_LINE1":"1 47759U 21017AP  21330.38902619  .00015046  00000-0  21290-3 0  9993","SITE":"AFETR","MEAN_ELEMENT_THEORY":"SGP4","RCS_SIZE":"LARGE","FILE":"3224704","LAUNCH_DATE":"2021-03-04","RA_OF_ASC_NODE":"5.3936","MEAN_ANOMALY":"312.6847","GP_ID":"190530643","COUNTRY_CODE":"US","BSTAR":"0.00021290000000","MEAN_MOTION_DDOT":"0.0000000000000","CLASSIFICATION_TYPE":"U","EPOCH":"2021-11-26T09:20:11.862816","SEMIMAJOR_AXIS":"6775.175","ECCENTRICITY":"0.00033020","EPHEMERIS_TYPE":"0","CENTER_NAME":"EARTH","OBJECT_TYPE":"PAYLOAD","MEAN_MOTION_DOT":"0.00015046","ARG_OF_PERICENTER":"47.4443","REF_FRAME":"TEME","ELEMENT_SET_NO":"999","APOAPSIS":"399.277","TIME_SYSTEM":"UTC","PERIAPSIS":"394.803","PERIOD":"92.500","INCLINATION":"53.0549","NORAD_CAT_ID":"47759"},{"SITE":"AFETR","TLE_LINE1":"1 47760U 21017AQ  21330.48307143  .00002430  00000-0  18197-3 0  9992","RCS_SIZE":"LARGE","MEAN_ELEMENT_THEORY":"SGP4","RA_OF_ASC_NODE":"43.5888","FILE":"3224704","LAUNCH_DATE":"2021-03-04","OBJECT_NAME":"STARLINK-2178","TLE_LINE2":"2 47760  53.0591  43.5888 0001233  80.4338 279.6791 15.06405829 41859","MEAN_MOTION":"15.06405829","OBJECT_ID":"2021-017AQ","REV_AT_EPOCH":"4185","DECAY_DATE":null,"BSTAR":"0.00018197000000","COUNTRY_CODE":"US","MEAN_MOTION_DDOT":"0.0000000000000","CLASSIFICATION_TYPE":"U","EPOCH":"2021-11-26T11:35:37.371552","MEAN_ANOMALY":"279.6791","GP_ID":"190531380","CENTER_NAME":"EARTH","MEAN_MOTION_DOT":"0.00002430","OBJECT_TYPE":"PAYLOAD","SEMIMAJOR_AXIS":"6925.331","EPHEMERIS_TYPE":"0","ECCENTRICITY":"0.00012330","PERIOD":"95.592","PERIAPSIS":"546.342","NORAD_CAT_ID":"47760","INCLINATION":"53.0591","REF_FRAME":"TEME","ARG_OF_PERICENTER":"80.4338","APOAPSIS":"548.050","TIME_SYSTEM":"UTC","ELEMENT_SET_NO":"999"},{"SEMIMAJOR_AXIS":"6925.372","ECCENTRICITY":"0.00011650","EPHEMERIS_TYPE":"0","CENTER_NAME":"EARTH","OBJECT_TYPE":"PAYLOAD","MEAN_MOTION_DOT":"-0.00000754","ARG_OF_PERICENTER":"79.1977","REF_FRAME":"TEME","ELEMENT_SET_NO":"999","APOAPSIS":"548.043","TIME_SYSTEM":"UTC","PERIOD":"95.593","PERIAPSIS":"546.430","INCLINATION":"53.0554","NORAD_CAT_ID":"47761","TLE_LINE2":"2 47761  53.0554  31.6961 0001165  79.1977 280.9143 15.06392484 42036","OBJECT_NAME":"STARLINK-2179","MEAN_MOTION":"15.06392484","DECAY_DATE":null,"OBJECT_ID":"2021-017AR","REV_AT_EPOCH":"4203","SITE":"AFETR","TLE_LINE1":"1 47761U 21017AR  21330.91157159 -.00000754  00000-0 -31737-4 0  9996","MEAN_ELEMENT_THEORY":"SGP4","RCS_SIZE":"LARGE","LAUNCH_DATE":"2021-03-04","FILE":"3224952","RA_OF_ASC_NODE":"31.6961","GP_ID":"190559948","MEAN_ANOMALY":"280.9143","COUNTRY_CODE":"US","BSTAR":"-0.00003173700000","MEAN_MOTION_DDOT":"0.0000000000000","CLASSIFICATION_TYPE":"U","EPOCH":"2021-11-26T21:52:39.785376"},{"OBJECT_ID":"2021-017AS","REV_AT_EPOCH":"4108","DECAY_DATE":null,"MEAN_MOTION":"15.06403012","OBJECT_NAME":"STARLINK-2180","TLE_LINE2":"2 47762  53.0545  49.8661 0001424  73.1056 287.0089 15.06403012 41086","RA_OF_ASC_NODE":"49.8661","LAUNCH_DATE":"2021-03-04","FILE":"3224353","RCS_SIZE":"LARGE","MEAN_ELEMENT_THEORY":"SGP4","SITE":"AFETR","TLE_LINE1":"1 47762U 21017AS  21330.20706202  .00002849  00000-0  21005-3 0  9999","MEAN_ANOMALY":"287.0089","GP_ID":"190500900","CLASSIFICATION_TYPE":"U","EPOCH":"2021-11-26T04:58:10.158528","MEAN_MOTION_DDOT":"0.0000000000000","BSTAR":"0.00021005000000","COUNTRY_CODE":"US","EPHEMERIS_TYPE":"0","ECCENTRICITY":"0.00014240","SEMIMAJOR_AXIS":"6925.339","MEAN_MOTION_DOT":"0.00002849","OBJECT_TYPE":"PAYLOAD","CENTER_NAME":"EARTH","APOAPSIS":"548.190","TIME_SYSTEM":"UTC","ELEMENT_SET_NO":"999","REF_FRAME":"TEME","ARG_OF_PERICENTER":"73.1056","NORAD_CAT_ID":"47762","INCLINATION":"53.0545","PERIAPSIS":"546.218","PERIOD":"95.592"},{"MEAN_ANOMALY":"284.3339","GP_ID":"190533411","COUNTRY_CODE":"US","BSTAR":"0.00001352500000","MEAN_MOTION_DDOT":"0.0000000000000","CLASSIFICATION_TYPE":"U","EPOCH":"2021-11-26T11:44:15.695520","TLE_LINE2":"2 47763  53.0689  38.5254 0001041  75.7766 284.3339 15.06399776 41269","OBJECT_NAME":"STARLINK-2181","MEAN_MOTION":"15.06399776","DECAY_DATE":null,"REV_AT_EPOCH":"4126","OBJECT_ID":"2021-017AT","SITE":"AFETR","TLE_LINE1":"1 47763U 21017AT  21330.48907055 -.00000080  00000-0  13525-4 0  9994","MEAN_ELEMENT_THEORY":"SGP4","RCS_SIZE":"LARGE","LAUNCH_DATE":"2021-03-04","FILE":"3224766","RA_OF_ASC_NODE":"38.5254","ARG_OF_PERICENTER":"75.7766","REF_FRAME":"TEME","ELEMENT_SET_NO":"999","TIME_SYSTEM":"UTC","APOAPSIS":"547.935","PERIOD":"95.592","PERIAPSIS":"546.493","INCLINATION":"53.0689","NORAD_CAT_ID":"47763","SEMIMAJOR_AXIS":"6925.349","ECCENTRICITY":"0.00010410","EPHEMERIS_TYPE":"0","CENTER_NAME":"EARTH","OBJECT_TYPE":"PAYLOAD","MEAN_MOTION_DOT":"-0.00000080"}];
